CCSDS_OMM_VERS = 2.0
CREATION_DATE  = 
ORIGINATOR     = 

OBJECT_NAME    = SL-3 R/B
OBJECT_ID      = 1982-079B
CENTER_NAME    = EARTH
REF_FRAME      = TEME
TIME_SYSTEM    = UTC
MEAN_ELEMENT_THEORY = SGP/SGP4

EPOCH          = 2026-03-16T05:29:41.996256
MEAN_MOTION    = 15.24904203
ECCENTRICITY   = .00252555
INCLINATION    = 81.1488
RA_OF_ASC_NODE = 185.3567
ARG_OF_PERICENTER = 143.1422
MEAN_ANOMALY   = 217.1554

EPHEMERIS_TYPE = 0
CLASSIFICATION_TYPE = U
NORAD_CAT_ID   = 13403
ELEMENT_SET_NO = 999
REV_AT_EPOCH   = 37869
BSTAR          = .262439E-3
MEAN_MOTION_DOT = .6615E-4
MEAN_MOTION_DDOT = 0

CCSDS_OMM_VERS = 2.0
CREATION_DATE  = 
ORIGINATOR     = 

OBJECT_NAME    = SL-14 R/B
OBJECT_ID      = 1982-092B
CENTER_NAME    = EARTH
REF_FRAME      = TEME
TIME_SYSTEM    = UTC
MEAN_ELEMENT_THEORY = SGP/SGP4

EPOCH          = 2026-03-16T04:07:34.561056
MEAN_MOTION    = 14.86672802
ECCENTRICITY   = .0018789
INCLINATION    = 82.5681
RA_OF_ASC_NODE = 135.3365
ARG_OF_PERICENTER = 280.4569
MEAN_ANOMALY   = 139.0493

EPHEMERIS_TYPE = 0
CLASSIFICATION_TYPE = U
NORAD_CAT_ID   = 13553
ELEMENT_SET_NO = 999
REV_AT_EPOCH   = 32989
BSTAR          = .48107578E-4
MEAN_MOTION_DOT = .453E-5
MEAN_MOTION_DDOT = 0

CCSDS_OMM_VERS = 2.0
CREATION_DATE  = 
ORIGINATOR     = 

OBJECT_NAME    = SL-3 R/B
OBJECT_ID      = 1983-010B
CENTER_NAME    = EARTH
REF_FRAME      = TEME
TIME_SYSTEM    = UTC
MEAN_ELEMENT_THEORY = SGP/SGP4

EPOCH          = 2026-03-16T03:59:55.128192
MEAN_MOTION    = 15.46603378
ECCENTRICITY   = .00173692
INCLINATION    = 81.1065
RA_OF_ASC_NODE = 354.3060
ARG_OF_PERICENTER = 29.9560
MEAN_ANOMALY   = 330.2674

EPHEMERIS_TYPE = 0
CLASSIFICATION_TYPE = U
NORAD_CAT_ID   = 13819
ELEMENT_SET_NO = 999
REV_AT_EPOCH   = 35894
BSTAR          = .32295139E-3
MEAN_MOTION_DOT = .16216E-3
MEAN_MOTION_DDOT = 0

CCSDS_OMM_VERS = 2.0
CREATION_DATE  = 
ORIGINATOR     = 

OBJECT_NAME    = SL-3 R/B
OBJECT_ID      = 1983-075B
CENTER_NAME    = EARTH
REF_FRAME      = TEME
TIME_SYSTEM    = UTC
MEAN_ELEMENT_THEORY = SGP/SGP4

EPOCH          = 2026-03-16T06:08:53.809440
MEAN_MOTION    = 15.38585006
ECCENTRICITY   = .00207712
INCLINATION    = 97.6136
RA_OF_ASC_NODE = 80.0826
ARG_OF_PERICENTER = 201.1549
MEAN_ANOMALY   = 158.8839

EPHEMERIS_TYPE = 0
CLASSIFICATION_TYPE = U
NORAD_CAT_ID   = 14208
ELEMENT_SET_NO = 999
REV_AT_EPOCH   = 33116
BSTAR          = .27319777E-3
MEAN_MOTION_DOT = .10397E-3
MEAN_MOTION_DDOT = 0

CCSDS_OMM_VERS = 2.0
CREATION_DATE  = 
ORIGINATOR     = 

OBJECT_NAME    = COSMOS 1536
OBJECT_ID      = 1984-013A
CENTER_NAME    = EARTH
REF_FRAME      = TEME
TIME_SYSTEM    = UTC
MEAN_ELEMENT_THEORY = SGP/SGP4

EPOCH          = 2026-03-16T03:43:14.241216
MEAN_MOTION    = 15.23916586
ECCENTRICITY   = .00124402
INCLINATION    = 82.5418
RA_OF_ASC_NODE = 101.4219
ARG_OF_PERICENTER = 257.4745
MEAN_ANOMALY   = 102.5101

EPHEMERIS_TYPE = 0
CLASSIFICATION_TYPE = U
NORAD_CAT_ID   = 14699
ELEMENT_SET_NO = 999
REV_AT_EPOCH   = 27360
BSTAR          = .27329804E-3
MEAN_MOTION_DOT = .6647E-4
MEAN_MOTION_DDOT = 0

CCSDS_OMM_VERS = 2.0
CREATION_DATE  = 
ORIGINATOR     = 

OBJECT_NAME    = SL-14 R/B
OBJECT_ID      = 1984-027B
CENTER_NAME    = EARTH
REF_FRAME      = TEME
TIME_SYSTEM    = UTC
MEAN_ELEMENT_THEORY = SGP/SGP4

EPOCH          = 2026-03-16T03:46:49.545696
MEAN_MOTION    = 14.85983773
ECCENTRICITY   = .00168851
INCLINATION    = 82.5395
RA_OF_ASC_NODE = 238.9453
ARG_OF_PERICENTER = 315.5028
MEAN_ANOMALY   = 44.4831

EPHEMERIS_TYPE = 0
CLASSIFICATION_TYPE = U
NORAD_CAT_ID   = 14820
ELEMENT_SET_NO = 999
REV_AT_EPOCH   = 24859
BSTAR          = .57489832E-4
MEAN_MOTION_DOT = .527E-5
MEAN_MOTION_DDOT = 0

CCSDS_OMM_VERS = 2.0
CREATION_DATE  = 
ORIGINATOR     = 

OBJECT_NAME    = SL-8 R/B
OBJECT_ID      = 1985-006B
CENTER_NAME    = EARTH
REF_FRAME      = TEME
TIME_SYSTEM    = UTC
MEAN_ELEMENT_THEORY = SGP/SGP4

EPOCH          = 2026-03-16T05:16:48.007776
MEAN_MOTION    = 14.37788242
ECCENTRICITY   = .00181658
INCLINATION    = 74.0434
RA_OF_ASC_NODE = 249.1305
ARG_OF_PERICENTER = 165.2012
MEAN_ANOMALY   = 7.4991

EPHEMERIS_TYPE = 0
CLASSIFICATION_TYPE = U
NORAD_CAT_ID   = 15483
ELEMENT_SET_NO = 999
REV_AT_EPOCH   = 15496
BSTAR          = .12339699E-3
MEAN_MOTION_DOT = .346E-5
MEAN_MOTION_DDOT = 0

CCSDS_OMM_VERS = 2.0
CREATION_DATE  = 
ORIGINATOR     = 

OBJECT_NAME    = SL-12 R/B(2)
OBJECT_ID      = 1985-042D
CENTER_NAME    = EARTH
REF_FRAME      = TEME
TIME_SYSTEM    = UTC
MEAN_ELEMENT_THEORY = SGP/SGP4

EPOCH          = 2026-03-16T04:03:56.708640
MEAN_MOTION    = 14.21984355
ECCENTRICITY   = .00330243
INCLINATION    = 71.1064
RA_OF_ASC_NODE = 74.0375
ARG_OF_PERICENTER = 117.4629
MEAN_ANOMALY   = 321.1920

EPHEMERIS_TYPE = 0
CLASSIFICATION_TYPE = U
NORAD_CAT_ID   = 15772
ELEMENT_SET_NO = 999
REV_AT_EPOCH   = 11531
BSTAR          = .65103399E-4
MEAN_MOTION_DOT = .97E-6
MEAN_MOTION_DDOT = 0

CCSDS_OMM_VERS = 2.0
CREATION_DATE  = 
ORIGINATOR     = 

OBJECT_NAME    = SL-14 R/B
OBJECT_ID      = 1985-069B
CENTER_NAME    = EARTH
REF_FRAME      = TEME
TIME_SYSTEM    = UTC
MEAN_ELEMENT_THEORY = SGP/SGP4

EPOCH          = 2026-03-16T04:59:01.489632
MEAN_MOTION    = 14.86441101
ECCENTRICITY   = .00190718
INCLINATION    = 82.5295
RA_OF_ASC_NODE = 18.8051
ARG_OF_PERICENTER = 166.0800
MEAN_ANOMALY   = 194.0947

EPHEMERIS_TYPE = 0
CLASSIFICATION_TYPE = U
NORAD_CAT_ID   = 15945
ELEMENT_SET_NO = 999
REV_AT_EPOCH   = 17380
BSTAR          = .57586406E-4
MEAN_MOTION_DOT = .535E-5
MEAN_MOTION_DDOT = 0

CCSDS_OMM_VERS = 2.0
CREATION_DATE  = 
ORIGINATOR     = 

OBJECT_NAME    = SL-16 R/B
OBJECT_ID      = 1985-097B
CENTER_NAME    = EARTH
REF_FRAME      = TEME
TIME_SYSTEM    = UTC
MEAN_ELEMENT_THEORY = SGP/SGP4

EPOCH          = 2026-03-16T04:47:33.603072
MEAN_MOTION    = 14.16598474
ECCENTRICITY   = .00097281
INCLINATION    = 71.0016
RA_OF_ASC_NODE = 126.8493
ARG_OF_PERICENTER = 251.7146
MEAN_ANOMALY   = 165.1397

EPHEMERIS_TYPE = 0
CLASSIFICATION_TYPE = U
NORAD_CAT_ID   = 16182
ELEMENT_SET_NO = 999
REV_AT_EPOCH   = 8815
BSTAR          = .79259472E-4
MEAN_MOTION_DOT = .11E-5
MEAN_MOTION_DDOT = 0

CCSDS_OMM_VERS = 2.0
CREATION_DATE  = 
ORIGINATOR     = 

OBJECT_NAME    = SL-14 R/B
OBJECT_ID      = 1986-006B
CENTER_NAME    = EARTH
REF_FRAME      = TEME
TIME_SYSTEM    = UTC
MEAN_ELEMENT_THEORY = SGP/SGP4

EPOCH          = 2026-03-15T21:55:55.639488
MEAN_MOTION    = 14.86824133
ECCENTRICITY   = .00751205
INCLINATION    = 82.5236
RA_OF_ASC_NODE = 253.8773
ARG_OF_PERICENTER = 251.7653
MEAN_ANOMALY   = 107.5378

EPHEMERIS_TYPE = 0
CLASSIFICATION_TYPE = U
NORAD_CAT_ID   = 16496
ELEMENT_SET_NO = 999
REV_AT_EPOCH   = 15013
BSTAR          = .70318797E-4
MEAN_MOTION_DOT = .685E-5
MEAN_MOTION_DDOT = 0

CCSDS_OMM_VERS = 2.0
CREATION_DATE  = 
ORIGINATOR     = 

OBJECT_NAME    = COSMOS 1743
OBJECT_ID      = 1986-034A
CENTER_NAME    = EARTH
REF_FRAME      = TEME
TIME_SYSTEM    = UTC
MEAN_ELEMENT_THEORY = SGP/SGP4

EPOCH          = 2026-03-16T06:05:49.132896
MEAN_MOTION    = 15.59071129
ECCENTRICITY   = .00018276
INCLINATION    = 82.5285
RA_OF_ASC_NODE = 66.9375
ARG_OF_PERICENTER = 230.6390
MEAN_ANOMALY   = 129.4704

EPHEMERIS_TYPE = 0
CLASSIFICATION_TYPE = U
NORAD_CAT_ID   = 16719
ELEMENT_SET_NO = 999
REV_AT_EPOCH   = 18127
BSTAR          = .48277975E-3
MEAN_MOTION_DOT = .37781E-3
MEAN_MOTION_DDOT = 0

