SL-3 R/B                
1 13403U 82079B   26075.22895829  .00006615  00000+0  26244-3 0  9990
2 13403  81.1488 185.3567 0025255 143.1422 217.1554 15.24904203378692
SL-14 R/B               
1 13553U 82092B   26075.17192779  .00000453  00000+0  48108-4 0  9997
2 13553  82.5681 135.3365 0018789 280.4569 139.0493 14.86672802329896
SL-3 R/B                
1 13819U 83010B   26075.16661028  .00016216  00000+0  32295-3 0  9993
2 13819  81.1065 354.3060 0017369  29.9560 330.2674 15.46603378358940
SL-3 R/B                
1 14208U 83075B   26075.25617835  .00010397  00000+0  27320-3 0  9991
2 14208  97.6136  80.0826 0020771 201.1549 158.8839 15.38585006331169
COSMOS 1536             
1 14699U 84013A   26075.15502594  .00006647  00000+0  27330-3 0  9996
2 14699  82.5418 101.4219 0012440 257.4745 102.5101 15.23916586273606
SL-14 R/B               
1 14820U 84027B   26075.15751789  .00000527  00000+0  57490-4 0  9991
2 14820  82.5395 238.9453 0016885 315.5028  44.4831 14.85983773248592
SL-8 R/B                
1 15483U 85006B   26075.22000009  .00000346  00000+0  12340-3 0  9998
2 15483  74.0434 249.1305 0018165 165.2012   7.4991 14.37788242154968
SL-12 R/B(2)            
1 15772U 85042D   26075.16940635  .00000097  00000+0  65103-4 0  9999
2 15772  71.1064  74.0375 0033024 117.4629 321.1920 14.21984355115312
SL-14 R/B               
1 15945U 85069B   26075.20765613  .00000535  00000+0  57586-4 0  9999
2 15945  82.5295  18.8051 0019071 166.0800 194.0947 14.86441101173802
SL-16 R/B               
1 16182U 85097B   26075.19969448  .00000110  00000+0  79259-4 0  9994
2 16182  71.0016 126.8493 0009728 251.7146 165.1397 14.16598474 88153
SL-14 R/B               
1 16496U 86006B   26074.91383842  .00000685  00000+0  70319-4 0  9995
2 16496  82.5236 253.8773 0075120 251.7653 107.5378 14.86824133150134
COSMOS 1743             
1 16719U 86034A   26075.25404089  .00037781  00000+0  48278-3 0  9994
2 16719  82.5285  66.9375 0001827 230.6390 129.4704 15.59071129181279
